{
  "type": "FeatureCollection",
  "features": [
    {
      "type": "Feature",
      "properties": {
        "norad_id": 66905,
        "name": "STARLINK-36075",
        "group": "last-30-days",
        "lat": 31.494733759709437,
        "lon": 167.11622987216816,
        "alt_km": 370.07387845821995,
        "timestamp": "2025-12-24T14:43:27.722157+00:00",
        "meta_object_name": "STARLINK-36075",
        "meta_object_id": "2025-283AD",
        "meta_epoch": "2025-12-24T06:00:02.000160",
        "meta_mean_motion": 15.66207211,
        "meta_eccentricity": 0.00012805,
        "meta_inclination": 53.1595,
        "meta_ra_of_asc_node": 16.2421,
        "meta_arg_of_pericenter": 91.5475,
        "meta_mean_anomaly": 158,
        "meta_ephemeris_type": 0,
        "meta_classification_type": "U",
        "meta_norad_cat_id": 66905,
        "meta_element_set_no": 999,
        "meta_rev_at_epoch": 427,
        "meta_bstar": -0.021975514,
        "meta_mean_motion_dot": -0.02027743,
        "meta_mean_motion_ddot": 0,
        "tle_line1": "1 66905U 25283AD  25358.25002315 -.02027743  00000+0 -21976-1 0  9999",
        "tle_line2": "2 66905  53.1595  16.2421 0001280  91.5475 158.0000 15.66207211  4272"
      },
      "geometry": {
        "type": "Point",
        "coordinates": [
          167.11622987216816,
          31.494733759709437
        ]
      }
    },
    {
      "type": "Feature",
      "properties": {
        "norad_id": 66906,
        "name": "1998-067XS",
        "group": "last-30-days",
        "lat": 18.766692535287852,
        "lon": -112.11217262451093,
        "alt_km": 411.72823269756464,
        "timestamp": "2025-12-24T14:43:27.722168+00:00",
        "meta_object_name": "1998-067XS",
        "meta_object_id": "1998-067XS",
        "meta_epoch": "2025-12-23T13:19:00.111360",
        "meta_mean_motion": 15.51136039,
        "meta_eccentricity": 0.00028154,
        "meta_inclination": 51.6316,
        "meta_ra_of_asc_node": 88.7613,
        "meta_arg_of_pericenter": 256.8779,
        "meta_mean_anomaly": 103.1896,
        "meta_ephemeris_type": 0,
        "meta_classification_type": "U",
        "meta_norad_cat_id": 66906,
        "meta_element_set_no": 999,
        "meta_rev_at_epoch": 329,
        "meta_bstar": 0.00048512679,
        "meta_mean_motion_dot": 0.0002847,
        "meta_mean_motion_ddot": 0,
        "tle_line1": "1 66906U 98067XS  25357.55486240  .00028470  00000+0  48513-3 0  9997",
        "tle_line2": "2 66906  51.6316  88.7613 0002815 256.8779 103.1896 15.51136039  3290"
      },
      "geometry": {
        "type": "Point",
        "coordinates": [
          -112.11217262451093,
          18.766692535287852
        ]
      }
    },
    {
      "type": "Feature",
      "properties": {
        "norad_id": 66907,
        "name": "1998-067XT",
        "group": "last-30-days",
        "lat": -34.40751658725162,
        "lon": -63.780344389636994,
        "alt_km": 411.30553892019543,
        "timestamp": "2025-12-24T14:43:27.722178+00:00",
        "meta_object_name": "1998-067XT",
        "meta_object_id": "1998-067XT",
        "meta_epoch": "2025-12-23T11:29:49.841376",
        "meta_mean_motion": 15.52745506,
        "meta_eccentricity": 0.0003882,
        "meta_inclination": 51.6313,
        "meta_ra_of_asc_node": 89.0045,
        "meta_arg_of_pericenter": 291.7662,
        "meta_mean_anomaly": 68.2915,
        "meta_ephemeris_type": 0,
        "meta_classification_type": "U",
        "meta_norad_cat_id": 66907,
        "meta_element_set_no": 999,
        "meta_rev_at_epoch": 328,
        "meta_bstar": 0.0010348952,
        "meta_mean_motion_dot": 0.00065231,
        "meta_mean_motion_ddot": 0,
        "tle_line1": "1 66907U 98067XT  25357.47904909  .00065231  00000+0  10349-2 0  9997",
        "tle_line2": "2 66907  51.6313  89.0045 0003882 291.7662  68.2915 15.52745506  3283"
      },
      "geometry": {
        "type": "Point",
        "coordinates": [
          -63.780344389636994,
          -34.40751658725162
        ]
      }
    },
    {
      "type": "Feature",
      "properties": {
        "norad_id": 66908,
        "name": "1998-067XU",
        "group": "last-30-days",
        "lat": -38.16246140601131,
        "lon": -58.148419605177594,
        "alt_km": 410.8876586332635,
        "timestamp": "2025-12-24T14:43:27.722188+00:00",
        "meta_object_name": "1998-067XU",
        "meta_object_id": "1998-067XU",
        "meta_epoch": "2025-12-23T11:28:24.726144",
        "meta_mean_motion": 15.52842233,
        "meta_eccentricity": 0.00039209,
        "meta_inclination": 51.6312,
        "meta_ra_of_asc_node": 88.9976,
        "meta_arg_of_pericenter": 289.9814,
        "meta_mean_anomaly": 70.0754,
        "meta_ephemeris_type": 0,
        "meta_classification_type": "U",
        "meta_norad_cat_id": 66908,
        "meta_element_set_no": 999,
        "meta_rev_at_epoch": 328,
        "meta_bstar": 0.0010206619,
        "meta_mean_motion_dot": 0.00064549,
        "meta_mean_motion_ddot": 0,
        "tle_line1": "1 66908U 98067XU  25357.47806396  .00064549  00000+0  10207-2 0  9993",
        "tle_line2": "2 66908  51.6312  88.9976 0003920 289.9814  70.0754 15.52842233  3282"
      },
      "geometry": {
        "type": "Point",
        "coordinates": [
          -58.148419605177594,
          -38.16246140601131
        ]
      }
    },
    {
      "type": "Feature",
      "properties": {
        "norad_id": 66909,
        "name": "SILVERSAT",
        "group": "last-30-days",
        "lat": -43.05778898268607,
        "lon": -48.91350955051474,
        "alt_km": 410.388545544959,
        "timestamp": "2025-12-24T14:43:27.722200+00:00",
        "meta_object_name": "SILVERSAT",
        "meta_object_id": "1998-067XV",
        "meta_epoch": "2025-12-24T05:58:18.632928",
        "meta_mean_motion": 15.53164124,
        "meta_eccentricity": 0.00038593,
        "meta_inclination": 51.6308,
        "meta_ra_of_asc_node": 85.1451,
        "meta_arg_of_pericenter": 300.0708,
        "meta_mean_anomaly": 59.99,
        "meta_ephemeris_type": 0,
        "meta_classification_type": "U",
        "meta_norad_cat_id": 66909,
        "meta_element_set_no": 999,
        "meta_rev_at_epoch": 340,
        "meta_bstar": 0.0012166372,
        "meta_mean_motion_dot": 0.00078073,
        "meta_mean_motion_ddot": 0,
        "tle_line1": "1 66909U 98067XV  25358.24882677  .00078073  00000+0  12166-2 0  9999",
        "tle_line2": "2 66909  51.6308  85.1451 0003859 300.0708  59.9900 15.53164124  3403"
      },
      "geometry": {
        "type": "Point",
        "coordinates": [
          -48.91350955051474,
          -43.05778898268607
        ]
      }
    },
    {
      "type": "Feature",
      "properties": {
        "norad_id": 66910,
        "name": "1998-067XW",
        "group": "last-30-days",
        "lat": -47.431159420751186,
        "lon": -37.09057108716675,
        "alt_km": 409.54225422986383,
        "timestamp": "2025-12-24T14:43:27.722212+00:00",
        "meta_object_name": "1998-067XW",
        "meta_object_id": "1998-067XW",
        "meta_epoch": "2025-12-23T11:23:56.481792",
        "meta_mean_motion": 15.5298943,
        "meta_eccentricity": 0.00039882,
        "meta_inclination": 51.6309,
        "meta_ra_of_asc_node": 88.9767,
        "meta_arg_of_pericenter": 265.4983,
        "meta_mean_anomaly": 94.5551,
        "meta_ephemeris_type": 0,
        "meta_classification_type": "U",
        "meta_norad_cat_id": 66910,
        "meta_element_set_no": 999,
        "meta_rev_at_epoch": 328,
        "meta_bstar": 0.00097986031,
        "meta_mean_motion_dot": 0.00062264,
        "meta_mean_motion_ddot": 0,
        "tle_line1": "1 66910U 98067XW  25357.47495928  .00062264  00000+0  97986-3 0  9993",
        "tle_line2": "2 66910  51.6309  88.9767 0003988 265.4983  94.5551 15.52989430  3286"
      },
      "geometry": {
        "type": "Point",
        "coordinates": [
          -37.09057108716675,
          -47.431159420751186
        ]
      }
    },
    {
      "type": "Feature",
      "properties": {
        "norad_id": 66911,
        "name": "1998-067XX",
        "group": "last-30-days",
        "lat": -51.608761004290095,
        "lon": -6.025299696807318,
        "alt_km": 408.28883439852143,
        "timestamp": "2025-12-24T14:43:27.722223+00:00",
        "meta_object_name": "1998-067XX",
        "meta_object_id": "1998-067XX",
        "meta_epoch": "2025-12-24T05:50:45.830400",
        "meta_mean_motion": 15.53583862,
        "meta_eccentricity": 0.00036335,
        "meta_inclination": 51.6309,
        "meta_ra_of_asc_node": 85.1103,
        "meta_arg_of_pericenter": 279.0791,
        "meta_mean_anomaly": 80.9788,
        "meta_ephemeris_type": 0,
        "meta_classification_type": "U",
        "meta_norad_cat_id": 66911,
        "meta_element_set_no": 999,
        "meta_rev_at_epoch": 339,
        "meta_bstar": 0.0012104757,
        "meta_mean_motion_dot": 0.00078877,
        "meta_mean_motion_ddot": 0,
        "tle_line1": "1 66911U 98067XX  25358.24358600  .00078877  00000+0  12105-2 0  9991",
        "tle_line2": "2 66911  51.6309  85.1103 0003633 279.0791  80.9788 15.53583862  3398"
      },
      "geometry": {
        "type": "Point",
        "coordinates": [
          -6.025299696807318,
          -51.608761004290095
        ]
      }
    }
  ]
}